NORAD_CAT_ID,OBJECT_NAME,OBJECT_TYPE,EPOCH,MEAN_MOTION,ECCENTRICITY,INCLINATION,RA_OF_ASC_NODE,ARG_OF_PERICENTER,MEAN_ANOMALY,BSTAR,MEAN_MOTION_DOT,MEAN_MOTION_DDOT,TLE_LINE0,TLE_LINE1,TLE_LINE2,SEMIMAJOR_AXIS,PERIOD,APOGEE,PERIGEE,DECAYED
52474.0,STARLINK-3855,PAYLOAD,2023-10-31 04:49:26,15.08831193,0.0001738,53.2158,312.0172,90.0196,270.0996,0.00011044,1.47e-05,0.0,0 STARLINK-3855,1 52474U 22049Z   23304.20100150  .00001470  00000-0  11044-3 0  9995,2 52474  53.2158 312.0172 0001738  90.0196 270.0996 15.08831193 82640,6917.907,95.438,540.975,538.57,0.0
52474.0,STARLINK-3855,PAYLOAD,2023-10-31 08:00:12,15.08834474,0.0001779,53.2167,311.4224,85.5027,274.6169,9.5598e-05,1.233e-05,0.0,0 STARLINK-3855,1 52474U 22049Z   23304.33348170  .00001233  00000-0  95598-4 0  9999,2 52474  53.2167 311.4224 0001779  85.5027 274.6169 15.08834474 82500,6917.897,95.438,540.993,538.532,0.0
52474.0,STARLINK-3855,PAYLOAD,2023-10-31 17:32:31,15.08837943,0.0001832,53.2169,309.638,87.3556,272.7646,0.00022478,3.291e-05,0.0,0 STARLINK-3855,1 52474U 22049Z   23304.73092260  .00003291  00000-0  22478-3 0  9991,2 52474  53.2169 309.6380 0001832  87.3556 272.7646 15.08837943 82560,6917.887,95.438,541.019,538.484,0.0
52474.0,STARLINK-3855,PAYLOAD,2023-11-01 07:50:59,15.08845075,0.0001781,53.2166,306.9618,86.5758,273.5438,0.00029957,4.483e-05,0.0,0 STARLINK-3855,1 52474U 22049Z   23305.32708107  .00004483  00000-0  29957-3 0  9994,2 52474  53.2166 306.9618 0001781  86.5758 273.5438 15.08845075 82810,6917.865,95.437,540.962,538.498,0.0
52474.0,STARLINK-3855,PAYLOAD,2023-11-01 17:23:18,15.08847069,0.000167,53.2162,305.1774,92.9894,267.1289,0.0002533,3.746e-05,0.0,0 STARLINK-3855,1 52474U 22049Z   23305.72451877  .00003746  00000-0  25330-3 0  9999,2 52474  53.2162 305.1774 0001670  92.9894 267.1289 15.08847069 82716,6917.859,95.437,540.879,538.568,0.0
52474.0,STARLINK-3855,PAYLOAD,2023-11-02 09:17:09,15.08856065,0.0001711,53.2159,302.203,91.0784,269.0404,0.00033635,5.071e-05,0.0,0 STARLINK-3855,1 52474U 22049Z   23306.38691374  .00005071  00000-0  33635-3 0  9990,2 52474  53.2159 302.2030 0001711  91.0784 269.0404 15.08856065 82973,6917.831,95.437,540.88,538.513,0.0
52474.0,STARLINK-3855,PAYLOAD,2023-11-02 17:14:05,15.08842945,0.0001811,53.2159,300.7155,89.3606,270.7594,6.7149e-05,7.81e-06,0.0,0 STARLINK-3855,1 52474U 22049Z   23306.71811808  .00000781  00000-0  67149-4 0  9994,2 52474  53.2159 300.7155 0001811  89.3606 270.7594 15.08842945 83026,6917.871,95.437,540.989,538.484,0.0
52474.0,STARLINK-3855,PAYLOAD,2023-11-03 05:57:10,15.08845316,0.0001763,53.2156,298.3357,95.6032,264.5161,9.6888e-05,1.254e-05,0.0,0 STARLINK-3855,1 52474U 22049Z   23307.24803657  .00001254  00000-0  96888-4 0  9994,2 52474  53.2156 298.3357 0001763  95.6032 264.5161 15.08845316 82944,6917.864,95.437,540.949,538.51,0.0
52474.0,STARLINK-3855,PAYLOAD,2023-11-03 17:04:52,15.08839187,0.0001668,53.2156,296.2549,94.7406,265.3777,3.9084e-05,3.34e-06,0.0,0 STARLINK-3855,1 52474U 22049Z   23307.71171962  .00000334  00000-0  39084-4 0  9996,2 52474  53.2156 296.2549 0001668  94.7406 265.3777 15.08839187 83170,6917.883,95.438,540.902,538.594,0.0
52474.0,STARLINK-3855,PAYLOAD,2023-11-04 08:58:43,15.08848559,0.0001651,53.216,293.2813,99.1635,260.9544,0.00025763,3.815e-05,0.0,0 STARLINK-3855,1 52474U 22049Z   23308.37411787  .00003815  00000-0  25763-3 0  9996,2 52474  53.2160 293.2813 0001651  99.1635 260.9544 15.08848559 83111,6917.854,95.437,540.861,538.577,0.0
52474.0,STARLINK-3855,PAYLOAD,2023-11-05 05:38:44,15.08854684,0.000174,53.2157,289.412,99.5171,260.6017,0.00048995,7.521e-05,0.0,0 STARLINK-3855,1 52474U 22049Z   23309.23523837  .00007521  00000-0  48995-3 0  9992,2 52474  53.2157 289.4120 0001740  99.5171 260.6017 15.08854684 83403,6917.836,95.437,540.904,538.497,0.0
52474.0,STARLINK-3855,PAYLOAD,2023-11-05 08:49:30,15.08858618,0.0001692,53.2155,288.8195,101.077,259.0412,0.00060543,9.365e-05,0.0,0 STARLINK-3855,1 52474U 22049Z   23309.36771673  .00009365  00000-0  60543-3 0  9990,2 52474  53.2155 288.8195 0001692 101.0770 259.0412 15.08858618 83262,6917.823,95.436,540.859,538.518,0.0
52474.0,STARLINK-3855,PAYLOAD,2023-11-06 02:18:44,15.08855956,0.0001661,53.2152,285.5475,102.7557,257.3621,0.00040102,6.103e-05,0.0,0 STARLINK-3855,1 52474U 22049Z   23310.09635188  .00006103  00000-0  40102-3 0  9998,2 52474  53.2152 285.5475 0001661 102.7557 257.3621 15.08855956 83536,6917.832,95.437,540.846,538.548,0.0
52474.0,STARLINK-3855,PAYLOAD,2023-11-06 05:29:30,15.08880045,0.0001463,53.2157,284.9528,86.6223,273.4937,0.00089999,0.0001408,0.0,0 STARLINK-3855,1 52474U 22049Z   23310.22882540  .00014080  00000-0  89999-3 0  9999,2 52474  53.2157 284.9528 0001463  86.6223 273.4937 15.08880045 83551,6917.758,95.435,540.635,538.611,0.0
52474.0,STARLINK-3855,PAYLOAD,2023-11-06 15:01:49,15.08852038,0.0001638,53.2164,283.1693,84.7975,275.3204,0.00010689,1.414e-05,0.0,0 STARLINK-3855,1 52474U 22049Z   23310.62626672  .00001414  00000-0  10689-3 0  9992,2 52474  53.2164 283.1693 0001638  84.7975 275.3204 15.08852038 83616,6917.844,95.437,540.842,538.575,0.0
52474.0,STARLINK-3855,PAYLOAD,2023-11-07 03:44:56,15.08812443,0.0001287,53.216,280.792,84.2742,275.8397,-0.00061169,-0.00010002,0.0,0 STARLINK-3855,1 52474U 22049Z   23311.15620490 -.00010002  00000-0 -61169-3 0  9997,2 52474  53.2160 280.7920 0001287  84.2742 275.8397 15.08812443 83697,6917.965,95.439,540.72,538.939,0.0
52474.0,STARLINK-3855,PAYLOAD,2023-11-07 06:55:42,15.08823731,0.0001181,53.2157,280.1972,84.0484,276.0642,-0.00031481,-5.292e-05,0.0,0 STARLINK-3855,1 52474U 22049Z   23311.28868281 -.00005292  00000-0 -31481-3 0  9992,2 52474  53.2157 280.1972 0001181  84.0484 276.0642 15.08823731 83719,6917.93,95.439,540.612,538.978,0.0
52474.0,STARLINK-3855,PAYLOAD,2023-11-08 03:35:42,15.08843789,0.0001123,53.2172,276.3354,110.1647,249.9466,0.00015946,2.251e-05,0.0,0 STARLINK-3855,1 52474U 22049Z   23312.14980215  .00002251  00000-0  15946-3 0  9998,2 52474  53.2172 276.3354 0001123 110.1647 249.9466 15.08843789 83847,6917.869,95.437,540.511,538.957,0.0
52474.0,STARLINK-3855,PAYLOAD,2023-11-08 06:46:29,15.08850866,9.98e-05,53.216,275.7391,125.6024,234.5061,0.00097335,0.00015241,0.0,0 STARLINK-3855,1 52474U 22049Z   23312.28228281  .00015241  00000-0  97335-3 0  9996,2 52474  53.2160 275.7391 0000998 125.6024 234.5061 15.08850866 83707,6917.847,95.437,540.403,539.022,0.0
52474.0,STARLINK-3855,PAYLOAD,2023-11-09 03:26:30,15.08850759,0.0001521,53.2169,271.8736,123.4776,236.6362,0.00038831,5.899e-05,0.0,0 STARLINK-3855,1 52474U 22049Z   23313.14340291  .00005899  00000-0  38831-3 0  9992,2 52474  53.2169 271.8736 0001521 123.4776 236.6362 15.08850759 83998,6917.848,95.437,540.765,538.66,0.0
52474.0,STARLINK-3855,PAYLOAD,2023-11-09 06:37:16,15.08868006,0.0001221,53.2154,271.2779,92.9272,267.1859,0.0010186,0.00015973,0.0,0 STARLINK-3855,1 52474U 22049Z   23313.27588055  .00015973  00000-0  10186-2 0  9994,2 52474  53.2154 271.2779 0001221  92.9272 267.1859 15.08868006 84019,6917.795,95.436,540.504,538.815,0.0
52474.0,STARLINK-3855,PAYLOAD,2023-11-10 03:17:17,15.08847298,0.0001092,53.2147,267.4134,84.3089,275.8027,0.0011295,0.00017737,0.0,0 STARLINK-3855,1 52474U 22049Z   23314.13700517  .00017737  00000-0  11295-2 0  9991,2 52474  53.2147 267.4134 0001092  84.3089 275.8027 15.08847298 84147,6917.858,95.437,540.479,538.968,0.0
52474.0,STARLINK-3855,PAYLOAD,2023-11-10 14:24:59,15.08836342,0.0002004,53.2174,265.3223,116.8986,243.2211,0.00024767,3.655e-05,0.0,0 STARLINK-3855,1 52474U 22049Z   23314.60068533  .00003655  00000-0  24767-3 0  9991,2 52474  53.2174 265.3223 0002004 116.8986 243.2211 15.08836342 84056,6917.892,95.438,541.143,538.37,0.0
52474.0,STARLINK-3855,PAYLOAD,2023-11-11 14:15:46,15.08838714,0.000165,53.2172,260.864,94.6715,265.4465,0.00023708,3.487e-05,0.0,0 STARLINK-3855,1 52474U 22049Z   23315.59428820  .00003487  00000-0  23708-3 0  9996,2 52474  53.2172 260.8640 0001650  94.6715 265.4465 15.08838714 84205,6917.884,95.438,540.891,538.608,0.0
52474.0,STARLINK-3855,PAYLOAD,2023-11-11 20:37:19,15.08838333,0.00016,53.217,259.6776,103.1312,256.9859,7.8946e-05,9.69e-06,0.0,0 STARLINK-3855,1 52474U 22049Z   23315.85925051  .00000969  00000-0  78946-4 0  9990,2 52474  53.2170 259.6776 0001600 103.1312 256.9859 15.08838333 84404,6917.885,95.438,540.857,538.644,0.0
52474.0,STARLINK-3855,PAYLOAD,2023-11-12 02:58:51,15.08840174,0.0001499,53.217,258.4894,101.7215,258.3945,0.00011801,1.591e-05,0.0,0 STARLINK-3855,1 52474U 22049Z   23316.12421016  .00001591  00000-0  11801-3 0  9991,2 52474  53.2170 258.4894 0001499 101.7215 258.3945 15.08840174 84288,6917.88,95.438,540.782,538.708,0.0
52474.0,STARLINK-3855,PAYLOAD,2023-11-12 20:28:06,15.08841287,0.0001509,53.2173,255.2194,98.5386,261.5777,0.0002276,3.336e-05,0.0,0 STARLINK-3855,1 52474U 22049Z   23316.85285275  .00003336  00000-0  22760-3 0  9991,2 52474  53.2173 255.2194 0001509  98.5386 261.5777 15.08841287 84390,6917.876,95.437,540.785,538.698,0.0
52474.0,STARLINK-3855,PAYLOAD,2023-11-13 02:49:38,15.08848733,0.0001499,53.2174,254.0307,95.5226,264.5937,0.00038342,5.821e-05,0.0,0 STARLINK-3855,1 52474U 22049Z   23317.11781080  .00005821  00000-0  38342-3 0  9990,2 52474  53.2174 254.0307 0001499  95.5226 264.5937 15.08848733 84598,6917.854,95.437,540.756,538.682,0.0
52474.0,STARLINK-3855,PAYLOAD,2023-11-13 20:18:53,15.08844389,0.0001376,53.2174,250.7591,103.577,256.5376,0.00021537,3.142e-05,0.0,0 STARLINK-3855,1 52474U 22049Z   23317.84645146  .00003142  00000-0  21537-3 0  9994,2 52474  53.2174 250.7591 0001376 103.5770 256.5376 15.08844389 84540,6917.867,95.437,540.684,538.78,0.0
52474.0,STARLINK-3855,PAYLOAD,2023-11-14 01:05:02,15.08849165,0.0001636,53.2177,249.8668,114.7649,245.3513,0.00028274,4.216e-05,0.0,0 STARLINK-3855,1 52474U 22049Z   23318.04516882  .00004216  00000-0  28274-3 0  9999,2 52474  53.2177 249.8668 0001636 114.7649 245.3513 15.08849165 84732,6917.852,95.437,540.849,538.586,0.0
